[{"OBJECT_NAME":"QIANFAN-7","OBJECT_ID":"2024-140G","EPOCH":"2026-03-09T22:22:28.116768","MEAN_MOTION":14.27774901,"ECCENTRICITY":0.00169421,"INCLINATION":88.9727,"RA_OF_ASC_NODE":283.4803,"ARG_OF_PERICENTER":110.6267,"MEAN_ANOMALY":249.6747,"EPHEMERIS_TYPE":0,"CLASSIFICATION_TYPE":"U","NORAD_CAT_ID":60385,"ELEMENT_SET_NO":999,"REV_AT_EPOCH":8283,"BSTAR":0.00011108135,"MEAN_MOTION_DOT":2.89e-6,"MEAN_MOTION_DDOT":0},{"OBJECT_NAME":"SL-12 DEB","OBJECT_ID":"2006-062S","EPOCH":"2026-03-09T09:09:59.194368","MEAN_MOTION":4.28238355,"ECCENTRICITY":0.55633451,"INCLINATION":65.0085,"RA_OF_ASC_NODE":37.8293,"ARG_OF_PERICENTER":273.6606,"MEAN_ANOMALY":27.7458,"EPHEMERIS_TYPE":0,"CLASSIFICATION_TYPE":"U","NORAD_CAT_ID":44982,"ELEMENT_SET_NO":999,"REV_AT_EPOCH":9928,"BSTAR":0.00048350292,"MEAN_MOTION_DOT":7.0e-8,"MEAN_MOTION_DDOT":0}]
